RADUGA 32               
1 23448U 94087A   13027.55489139  .00000000  00000-0  10000-3 0  5907
2 23448  12.7999  37.0733 0005533 122.1511 237.9775  1.00273118 83927
RADUGA-1 4              
1 25642U 99010A   13027.68269590  .00000000  00000-0  10000-3 0  6740
2 25642  11.7899  50.7222 0001123  90.8512 269.2446  1.00297759 50969
RADUGA-1 5              
1 26477U 00049A   13026.58313131 -.00000079  00000-0  10000-3 0  5432
2 26477   9.4041  50.9213 0002718 353.3791   6.6996  1.00203818 45463
RADUGA-1 7              
1 28194U 04010A   13027.67587868  .00000000  00000-0  10000-3 0  6684
2 28194   6.8948  64.1265 0001953  13.9894 346.1019  1.00366376 32389
RADUGA-1M 1             
1 32373U 07058A   13026.87493981 -.00000038  00000-0  00000+0 0  4704
2 32373   0.0332  82.5383 0001971 200.3829 228.3586  1.00272835 19708
